XW-3 (CAS-9)            
1 50466U 21131B   26065.86588933  .00000653  00000+0  21565-3 0  9993
2 50466  98.4965 158.8375 0004973  56.7649 303.4016 14.41246369220372
GREENCUBE (IO-117)      
1 53109U 22080E   26065.15298404 -.00000003  00000+0  00000+0 0  9994
2 53109  70.1629 334.0832 0009028 311.9360  48.0530  6.42583089 85446
UMKA 1 (RS40S)          
1 57172U 23091G   26065.80644493  .00008304  00000+0  39273-3 0  9995
2 57172  97.5180 124.9242 0014639 114.9757 245.3000 15.19543364148452
CUBESX-HSE 3 (RS42S)    
1 57178U 23091N   26065.87977384  .00018040  00000+0  65088-3 0  9997
2 57178  97.5209 130.3217 0012756  95.9622 264.3072 15.28495528148784
MONITOR-3 (RS58S)       
1 57180U 23091Q   26065.82691500  .00014182  00000+0  55833-3 0  9998
2 57180  97.5204 128.6249 0013755 100.8962 259.3824 15.25647463148671
MONITOR-4 (RS57S)       
1 57182U 23091S   26065.87778564  .00014942  00000+0  58653-3 0  9998
2 57182  97.5198 128.6408 0013715 101.1094 259.1687 15.25734530148686
MONITOR-2 (RS39S)       
1 57184U 23091U   26065.83848318  .00007679  00000+0  38153-3 0  9993
2 57184  97.5203 124.7915 0012984 107.6249 252.6404 15.17871067148420
SVYATOBOR 1 (RS60S)     
1 57187U 23091X   26065.87824222  .00012486  00000+0  50604-3 0  9995
2 57187  97.5209 129.2085 0011246  93.7276 266.5247 15.24734854148713
VIZARD-METEO (RS38S)    
1 57189U 23091Z   26065.89066519  .00021945  00000+0  69717-3 0  9991
2 57189  97.5199 133.5336 0008886  80.9361 279.2886 15.32620735149003
NANOZOND 1 (RS49S)      
1 57190U 23091AA  26063.78486012  .00233103  00000+0  17099-2 0  9999
2 57190  97.5090 143.6448 0000456  27.7219 332.4068 15.72447637149508
POLYTECH-UNIVERSE 3 (R*)
1 57191U 23091AB  26065.87883267  .00007187  00000+0  35489-3 0  9990
2 57191  97.5180 124.3387 0017276 123.0169 237.2727 15.18054466148427
UTMN 2 (RS27S)          
1 57203U 23091AP  26065.88967975  .00017711  00000+0  62266-3 0  9991
2 57203  97.5201 131.8394 0009835  85.2404 274.9959 15.29379115148898
KUZGTU 1 (RS47S)        
1 57217U 23091AV  26065.85350503  .00016798  00000+0  62734-3 0  9990
2 57217  97.5185 129.4187 0012969  98.9041 261.3666 15.27371097148745
SONATE-2                
1 59112U 24043Q   26065.82105021  .00047936  00000+0  82036-3 0  9999
2 59112  97.5390 210.6117 0007751 216.5055 143.5669 15.51079188111984
MESAT1                  
1 60209U 24125G   26065.35054915  .00044950  00000+0  71167-3 0  9998
2 60209  97.2455 281.1607 0011352 235.5083 124.5099 15.53231197 93553
OOV-CUBE (TUBSAT-30)    
1 60240U 24128F   26065.83391448  .00005102  00000+0  38847-3 0  9998
2 60240  61.9944 222.3349 0054710 111.7529 248.9397 15.02225111 90736
